#dP2023  2 18  0  0  0.00000000     288   u+U IGS20 FIT  GFZ                    
## 2249 518400.00000000   300.00000000 59993 0.0000000000000                    
+  127   C01C02C03C04C05C06C07C08C09C10C11C12C13C14C16C19C20                    
+        C21C22C23C24C25C26C27C28C29C30C32C33C34C35C36C37C38                    
+        C39C40C41C42C43C44C45C46C59C60E01E02E03E04E05E07E08                    
+        E09E10E11E12E13E14E15E18E19E21E24E25E26E27E30E31E33                    
+        E34E36G01G02G03G04G05G06G07G08G09G10G11G12G13G14G15                    
+        G16G17G18G19G20G21G22G23G24G25G26G27G28G29G30G31G32                    
+        J02J03J04J07R01R02R03R04R05R07R08R09R11R12R13R14R15                    
+        R16R17R18R19R20R21R22R24 00 00 00 00 00 00 00 00 00                    
++        10 10 10 10 10 10  8 10 10 10 10  8 10  9  9  8  8                    
++         8  7  5  8  5  7 10  9  7  6  6  8  6  6  7  6 10                    
++        10 10  5  6  6  5  7  6 10 10  6  5  6  5  8  5  6                    
++         6  5  7  6  5  6  5  7  8  5  7  5  5  7  5  7  6                    
++         6  6  6  6  5  5  5  7  7  5  7  6  5  5  5  6  7                    
++         0  5  6  7  7  5  6  5  5  5  5  5 10  5  5  6  5                    
++         7 10 10 10  7  6  7  9  9  7  6  9  7  9  8  6 10                    
++         7  7  7  8 10  8  8  8  0  0  0  0  0  0  0  0  0                    
%c M  cc GPS ccc cccc cccc cccc cccc ccccc ccccc ccccc ccccc                    
%c cc cc ccc ccc cccc cccc cccc cccc ccccc ccccc ccccc ccccc                    
%f  1.2500000  1.025000000  0.00000000000  0.000000000000000                    
%f  0.0000000  0.000000000  0.00000000000  0.000000000000000                    
%i    0    0    0    0      0      0      0      0         0                    
%i    0    0    0    0      0      0      0      0         0                    
/* PCV:IGS20_2221 OL/AL:FES2014b NONE     YN CLK:CoN ORB:CoN                    
/*     GeoForschungsZentrum Potsdam                                             
/*                                                                              
/*                                                                              
*  2023  2 18 11 30  0.00000000                                                 
PC01 -34337.759194  24479.619032    437.966208    910.188355                    
PC02   4375.780175  41890.186092   -707.960112   -639.729745                    
PC03 -14796.912374  39446.123580     -1.736332    241.137197                    
PC04 -39632.435106  14386.149347    668.356150    176.637494                    
PC05  21874.854713  35958.184465  -1260.235762    257.691547                    
PC06  -4264.755944  25715.755135 -33079.407024   -191.501445                    
PC07 -17677.734704  32446.614323  20202.607530     96.328441                    
PC08  -6218.126021  40706.790405   9498.279906    525.351874                    
PC09   4607.147327  29232.284947 -29434.898766    724.625304                    
PC10 -10374.925849  32408.079380  24888.243196      8.714705                    
PC11  10629.470109 -11720.853178 -22919.542504   -113.743279                    
PC12  24326.813255   1048.377930 -13593.635222    459.685035                    
PC13  -2456.562869  42025.340851   4372.730920    210.713331                    
PC14  17426.227488 -20250.533919   8180.101709    494.341747                    
PC16  -5657.498832  24326.973011 -33714.031023    159.338688                    
PC19  -9300.604350  20793.905794 -16079.281081   -894.571124                    
PC20 -21987.970879  17149.217095   -608.689213    718.104077                    
PC21  22382.540265  -2841.760127 -16415.508238   -910.500848                    
PC22   9410.501480  12610.351120 -23043.187033   -626.660034                    
PC23 -10104.159854 -24062.202541  -9877.401476   -878.730416                    
PC24  13391.652535 -13146.770245  20624.402056   -395.368465                    
PC25    935.413175 -27048.517553   6738.793218     74.082053                    
PC26  16591.021459   5875.136972  21644.043044    -80.487900                    
PC27 -26349.897255  -7079.186207   5884.273665     98.608712                    
PC28 -19713.928323 -16663.224995 -10604.250294     71.869614                    
PC29    782.456706  16903.398104  22183.950683     82.734945                    
PC30 -18866.215400   7054.083144  19319.545585      1.124679                    
PC32 -22323.084458   2896.994715  16507.537854   -618.903885                    
PC33   9246.805849 -20902.718011  16029.130760   -872.624014                    
PC34  17820.009671  -7962.225251 -19945.010989    108.835776                    
PC35  19374.994963  16360.850736  11591.775376    678.449417                    
PC36  -2030.755728  26841.264335  -7366.005055   -617.128832                    
PC37 -16344.234497  -7795.669093 -21221.749210   -818.416251                    
PC38 -11014.055995  37002.582602  17149.887048     59.618695                    
PC39 -12108.374000  20796.595213 -34588.329302     -1.853175                    
PC40 -24879.954768  27264.951848  20156.964481    -15.420469                    
PC41  -8887.898152 -13084.324188  23046.865085   -626.548726                    
PC42  22450.193305 -16582.901266   -569.588129   -830.180928                    
PC43    176.236991 -16799.188688 -22294.664968      7.789810                    
PC44  26590.853131   6168.796343  -5715.983300     19.218288                    
PC45  10243.466242  23856.843192  10256.984733    -61.991271                    
PC46 -12553.219166  14950.905926 -19965.586582    -34.266584                    
PC59 -32331.057639  27054.268190   -545.537033     -0.021680                    
PC60   7292.866640  41517.572663    829.899714     -0.518231                    
PE01   4356.023918  22111.296625  19191.425407   -600.458394                    
PE02  -4728.464902 -21775.277572 -19481.948279     21.539460                    
PE03 -14108.986059 -14027.687115  21913.522093   -651.223046                    
PE04  28171.148605   3136.224987  -8514.194572    -60.923578                    
PE05   8592.405244 -16916.469664  22723.491958    -94.172498                    
PE07 -26019.738844   9807.639179 -10134.295976    -23.829826                    
PE08 -28112.762483  -3141.220006   8707.100858    -38.061537                    
PE09  26116.512706  -9702.754403  10016.112384   -840.430027                    
PE10  19854.723138   3519.581743 -21670.934149   -513.267081                    
PE11  14423.311223  -7433.315107 -24759.881180    933.786862                    
PE12  21704.907336  12858.948722 -15461.330207   -426.826416                    
PE13 -14933.501208   6513.324388  24721.022596     -0.339572                    
PE14 -24388.120890    295.345612    834.758238    145.657544                    
PE15 -21717.378217 -13166.000258  15223.806731     -1.953292                    
PE18  28842.613613  -8515.608686 -11317.669180   -376.685446                    
PE19  11231.098635  14901.915141 -22968.365394  -3204.824413                    
PE21  -9257.216415  27771.518380   4414.681780   -512.859169                    
PE24  19009.019633 -17280.935131  14657.555730  -1120.904376                    
PE25   9464.845200 -27735.408512  -4116.953921   -599.635931                    
PE26   1076.683502  22646.054041  19036.243594     21.977008                    
PE27 -18765.345743  18097.391586 -14038.895864   -515.246051                    
PE30 -16928.841690  -2932.619634 -24121.294984  -1252.368296                    
PE31  17123.411550   2157.276102  24046.561436   -516.360742                    
PE33  15616.810382  24931.986916   3208.870971   -451.650933                    
PE34 -15768.233902 -24865.653643  -3037.109951    -30.723052                    
PE36   -532.973547 -22160.350300 -19617.301121    -14.235749                    
PG01 -18379.712662  -8639.983548  16987.533192    211.208929                    
PG02  18381.281191   3640.074350 -18103.431899   -620.021513                    
PG03 -16837.075759   2777.914868  20199.917104   -361.638731                    
PG04 -26601.971902   -462.746574    937.773922    -24.884995                    
PG05   9865.974279  13223.340528 -20958.318586   -116.372381                    
PG06   2484.154445  22078.468592  14549.476931    573.745537                    
PG07 -13997.718543   6292.378239 -21266.673556    238.752129                    
PG08 -22593.831344  -7188.459289 -12418.870382   -109.072717                    
PG09 -23442.932312   8223.268665  -9534.630399   -215.968901                    
PG10  10821.538711 -23984.615603   2182.799289    -25.213333                    
PG11  11871.875519  23704.839527   1905.770002   -107.512109                    
PG12  16529.723244    169.314574  20486.276726   -341.803966                    
PG13  16226.879938  13085.597005 -16746.770080    478.036948                    
PG14 -13356.165191  22870.593516   -490.325802    -24.246495                    
PG15  23315.099567   5122.099736 -12375.846199     14.515572                    
PG16  -6726.923960 -15740.511672 -20483.459010   -519.520415                    
PG17 -12915.623722  13046.527669  19664.809303    700.786885                    
PG18  11165.011752 -10209.784387 -21816.459230   -145.715612                    
PG19  -1176.440962  14753.043249  21823.051881    279.327547                    
PG20   3506.681499  22229.482811 -14237.501355    449.969595                    
PG21 -20377.034893 -14503.078603  10656.052497    154.064920                    
PG22  -2753.467288 -15385.520676  21926.305211    429.487074                    
PG23  16220.090290 -18731.599010  -9358.201492      6.684854                    
PG24  20427.521946  11115.058363  12849.826598    -78.808736                    
PG25  18047.743725 -10494.028697  15945.794126    421.123398                    
PG26   1941.510441 -24060.543695 -10795.967750    241.590894                    
PG27 -13026.416502 -12890.664361 -19607.421224     99.528566                    
PG28  -1425.209170 -21391.253068  15649.117550     17.178657                    
PG29  25398.853617  -3824.635265  -6964.597988   -586.768299                    
PG30  -4797.206348  18204.879713 -18539.161577   -529.885599                    
PG31  -3487.883460 -22868.294808  12462.116794   -209.563865                    
PG32   9054.061504 -14693.361808  20301.548051   -399.823745                    
PJ02 -26163.386038  31277.827420  -6095.334615     -0.925654                    
PJ03 -26547.379412  22210.323542  29158.719091      0.325857                    
PJ04 -32643.145951  26722.992065   1675.071511     94.261985                    
PJ07 -25405.205858  33654.436682    -46.191655      0.000565                    
PR01 -16892.971665  -1351.846391  19065.577514     23.272879                    
PR02 -23396.033212   9738.381901   3252.864443    -23.245974                    
PR03 -15539.474026  14950.043327 -13626.553998     72.733416                    
PR04    581.997024  11504.293637 -22728.794003    176.280085                    
PR05  16434.524521   2017.825574 -19378.761797    107.968063                    
PR07  14791.488295 -14967.699787  14422.049811     50.178386                    
PR08   -954.246132 -11536.754036  22787.951877    -69.501518                    
PR09  10913.336718  -8656.017240  21397.710090    104.769202                    
PR11  -2017.724958 -24570.367455  -6569.196483     -6.277028                    
PR12  -9410.723798 -11242.986159 -20850.031033     25.098497                    
PR13 -10920.229780   6610.898112 -22106.570922    -32.141852                    
PR14  -5838.512422  22841.655091  -9717.919909     24.361198                    
PR15   2357.873308  24215.995114   7674.430279     90.987270                    
PR16   9292.367827  11503.272624  20777.651812     11.433910                    
PR17  -3796.275809  10102.894907  23124.792735    605.935113                    
PR18  11572.289614  16420.515880  15700.562233     67.425324                    
PR19  20254.548370  15437.020784   1425.417374   -222.330337                    
PR20  18118.470087   3531.558359 -17568.540824    -87.906458                    
PR21   2240.769328 -10949.556017 -22924.708445   -374.248719                    
PR22 -11585.423212 -17194.354554 -14845.116650     71.493476                    
PR24 -18106.036409  -2182.944779  17850.461868    147.718199                    
EOF                                     
